{
    "links": {
        "self": "http://www.neowsapp.com/rest/v1/neo/3799791?api_key=iIulBulltgU6a56xZRHN4H3l9WmuAYTsLGpBGhQ2"
    },
    "id": "3799791",
    "neo_reference_id": "3799791",
    "name": "(2018 EH)",
    "designation": "2018 EH",
    "nasa_jpl_url": "http://ssd.jpl.nasa.gov/sbdb.cgi?sstr=3799791",
    "absolute_magnitude_h": 24.4,
    "estimated_diameter": {
        "kilometers": {
            "estimated_diameter_min": 0.0350392641,
            "estimated_diameter_max": 0.0783501764
        },
        "meters": {
            "estimated_diameter_min": 35.0392641108,
            "estimated_diameter_max": 78.3501764334
        },
        "miles": {
            "estimated_diameter_min": 0.0217723826,
            "estimated_diameter_max": 0.0486845275
        },
        "feet": {
            "estimated_diameter_min": 114.9582192654,
            "estimated_diameter_max": 257.0543928497
        }
    },
    "is_potentially_hazardous_asteroid": false,
    "close_approach_data": [
        {
            "close_approach_date": "1999-08-06",
            "close_approach_date_full": "1999-Aug-06 04:20",
            "epoch_date_close_approach": 933913200000,
            "relative_velocity": {
                "kilometers_per_second": "5.1153174686",
                "kilometers_per_hour": "18415.1428869313",
                "miles_per_hour": "11442.4536454935"
            },
            "miss_distance": {
                "astronomical": "0.7463467186",
                "lunar": "290.3288735354",
                "kilometers": "111651879.384049382",
                "miles": "69377260.7829181916"
            },
            "orbiting_body": "Juptr"
        },
        {
            "close_approach_date": "2018-03-15",
            "close_approach_date_full": "2018-Mar-15 07:02",
            "epoch_date_close_approach": 1521097320000,
            "relative_velocity": {
                "kilometers_per_second": "10.9545575389",
                "kilometers_per_hour": "39436.4071400353",
                "miles_per_hour": "24504.2497587625"
            },
            "miss_distance": {
                "astronomical": "0.0236091009",
                "lunar": "9.1839402501",
                "kilometers": "3531871.207255083",
                "miles": "2194603.0030948254"
            },
            "orbiting_body": "Earth"
        },
        {
            "close_approach_date": "2018-06-27",
            "close_approach_date_full": "2018-Jun-27 02:01",
            "epoch_date_close_approach": 1530064860000,
            "relative_velocity": {
                "kilometers_per_second": "16.3936492267",
                "kilometers_per_hour": "59017.1372161394",
                "miles_per_hour": "36670.9539552173"
            },
            "miss_distance": {
                "astronomical": "0.0259805735",
                "lunar": "10.1064430915",
                "kilometers": "3886638.456978445",
                "miles": "2415045.150034741"
            },
            "orbiting_body": "Mars"
        }
    ],
    "orbital_data": {
        "orbit_id": "6",
        "orbit_determination_date": "2018-04-05 06:22:38",
        "first_observation_date": "2018-03-06",
        "last_observation_date": "2018-03-14",
        "data_arc_in_days": 8,
        "observations_used": 59,
        "orbit_uncertainty": "7",
        "minimum_orbit_intersection": ".00981086",
        "jupiter_tisserand_invariant": "3.112",
        "epoch_osculation": "2459000.5",
        "eccentricity": ".6284974829098604",
        "semi_major_axis": "2.577877180418049",
        "inclination": "2.475753037889596",
        "ascending_node_longitude": "12.27442906059171",
        "orbital_period": "1511.791015588299",
        "perihelion_distance": ".9576878612745372",
        "perihelion_argument": "192.2209350026121",
        "aphelion_distance": "4.198066499561562",
        "perihelion_time": "2459726.771940004711",
        "mean_anomaly": "187.0542054386055",
        "mean_motion": ".2381281515024148",
        "equinox": "J2000",
        "orbit_class": {
            "orbit_class_type": "APO",
            "orbit_class_description": "Near-Earth asteroid orbits which cross the Earth’s orbit similar to that of 1862 Apollo",
            "orbit_class_range": "a (semi-major axis) > 1.0 AU; q (perihelion) < 1.017 AU"
        }
    },
    "is_sentry_object": false
}